<?xml version="1.0" encoding="UTF-8"?>
<kml xmlns="http://www.opengis.net/kml/2.2" xmlns:gx="http://www.google.com/kml/ext/2.2">
    <Document id="1">
        <Style id="6">
            <PolyStyle id="7">
                <color>fff8ede2</color>
                <colorMode>normal</colorMode>
                <fill>1</fill>
                <outline>0</outline>
            </PolyStyle>
        </Style>
        <Style id="12">
            <PolyStyle id="13">
                <color>fffefaf6</color>
                <colorMode>normal</colorMode>
                <fill>1</fill>
                <outline>0</outline>
            </PolyStyle>
        </Style>
        <Style id="18">
            <PolyStyle id="19">
                <color>fffbf4ec</color>
                <colorMode>normal</colorMode>
                <fill>1</fill>
                <outline>0</outline>
            </PolyStyle>
        </Style>
        <Style id="24">
            <PolyStyle id="25">
                <color>fff8ede1</color>
                <colorMode>normal</colorMode>
                <fill>1</fill>
                <outline>0</outline>
            </PolyStyle>
        </Style>
        <Style id="30">
            <PolyStyle id="31">
                <color>fffcf6f0</color>
                <colorMode>normal</colorMode>
                <fill>1</fill>
                <outline>0</outline>
            </PolyStyle>
        </Style>
        <Style id="36">
            <PolyStyle id="37">
                <color>fff7ebdf</color>
                <colorMode>normal</colorMode>
                <fill>1</fill>
                <outline>0</outline>
            </PolyStyle>
        </Style>
        <Style id="42">
            <PolyStyle id="43">
                <color>fff9efe5</color>
                <colorMode>normal</colorMode>
                <fill>1</fill>
                <outline>0</outline>
            </PolyStyle>
        </Style>
        <Style id="48">
            <PolyStyle id="49">
                <color>fffdf7f2</color>
                <colorMode>normal</colorMode>
                <fill>1</fill>
                <outline>0</outline>
            </PolyStyle>
        </Style>
        <Style id="54">
            <PolyStyle id="55">
                <color>fffffbf7</color>
                <colorMode>normal</colorMode>
                <fill>1</fill>
                <outline>0</outline>
            </PolyStyle>
        </Style>
        <Style id="60">
            <PolyStyle id="61">
                <color>fffdf8f3</color>
                <colorMode>normal</colorMode>
                <fill>1</fill>
                <outline>0</outline>
            </PolyStyle>
        </Style>
        <Style id="66">
            <PolyStyle id="67">
                <color>fffbf4ec</color>
                <colorMode>normal</colorMode>
                <fill>1</fill>
                <outline>0</outline>
            </PolyStyle>
        </Style>
        <Placemark id="3">
            <styleUrl>#6</styleUrl>
            <Polygon id="2">
                <outerBoundaryIs>
                    <LinearRing id="4">
                        <coordinates>12.108040201005023,55.01436030211085,0.0 12.108040201005023,55.03198042959245,0.0 12.14572864321608,55.03198042959245,0.0 12.14572864321608,55.01436030211085,0.0 12.108040201005023,55.01436030211085,0.0</coordinates>
                    </LinearRing>
                </outerBoundaryIs>
            </Polygon>
        </Placemark>
        <Placemark id="9">
            <styleUrl>#12</styleUrl>
            <Polygon id="8">
                <outerBoundaryIs>
                    <LinearRing id="10">
                        <coordinates>12.14572864321608,55.01436030211085,0.0 12.14572864321608,55.03198042959245,0.0 12.156571504408298,55.03198042959245,0.0 12.163340691000087,55.02338288000004,0.0 12.162838300683436,55.01436030211085,0.0 12.14572864321608,55.01436030211085,0.0</coordinates>
                    </LinearRing>
                </outerBoundaryIs>
            </Polygon>
        </Placemark>
        <Placemark id="15">
            <styleUrl>#18</styleUrl>
            <Polygon id="14">
                <outerBoundaryIs>
                    <LinearRing id="16">
                        <coordinates>12.14572864321608,55.34782010834188,0.0 12.14572864321608,55.36529338987772,0.0 12.183417085427134,55.36529338987772,0.0 12.183417085427134,55.34782010834188,0.0 12.14572864321608,55.34782010834188,0.0</coordinates>
                    </LinearRing>
                </outerBoundaryIs>
            </Polygon>
        </Placemark>
        <Placemark id="21">
            <styleUrl>#24</styleUrl>
            <Polygon id="20">
                <outerBoundaryIs>
                    <LinearRing id="22">
                        <coordinates>10.148241206030148,55.95480863537601,0.0 10.148241206030148,55.97201310223141,0.0 10.185929648241205,55.97201310223141,0.0 10.185929648241205,55.95480863537601,0.0 10.148241206030148,55.95480863537601,0.0</coordinates>
                    </LinearRing>
                </outerBoundaryIs>
            </Polygon>
        </Placemark>
        <Placemark id="27">
            <styleUrl>#30</styleUrl>
            <Polygon id="26">
                <outerBoundaryIs>
                    <LinearRing id="28">
                        <coordinates>10.148241206030148,55.97201310223141,0.0 10.148241206030148,55.98920992154659,0.0 10.185929648241205,55.98920992154659,0.0 10.185929648241205,55.97201310223141,0.0 10.148241206030148,55.97201310223141,0.0</coordinates>
                    </LinearRing>
                </outerBoundaryIs>
            </Polygon>
        </Placemark>
        <Placemark id="33">
            <styleUrl>#36</styleUrl>
            <Polygon id="32">
                <outerBoundaryIs>
                    <LinearRing id="34">
                        <coordinates>9.58291457286432,56.05792076045245,0.0 9.58291457286432,56.07507936986886,0.0 9.620603015075377,56.07507936986886,0.0 9.620603015075377,56.05792076045245,0.0 9.58291457286432,56.05792076045245,0.0</coordinates>
                    </LinearRing>
                </outerBoundaryIs>
            </Polygon>
        </Placemark>
        <Placemark id="39">
            <styleUrl>#42</styleUrl>
            <Polygon id="38">
                <outerBoundaryIs>
                    <LinearRing id="40">
                        <coordinates>9.356783919597989,56.194975920850105,0.0 9.356783919597989,56.21207349127454,0.0 9.394472361809045,56.21207349127454,0.0 9.394472361809045,56.194975920850105,0.0 9.356783919597989,56.194975920850105,0.0</coordinates>
                    </LinearRing>
                </outerBoundaryIs>
            </Polygon>
        </Placemark>
        <Placemark id="45">
            <styleUrl>#48</styleUrl>
            <Polygon id="44">
                <outerBoundaryIs>
                    <LinearRing id="46">
                        <coordinates>9.356783919597989,56.21207349127454,0.0 9.356783919597989,56.22916344024578,0.0 9.394472361809045,56.22916344024578,0.0 9.394472361809045,56.21207349127454,0.0 9.356783919597989,56.21207349127454,0.0</coordinates>
                    </LinearRing>
                </outerBoundaryIs>
            </Polygon>
        </Placemark>
        <Placemark id="51">
            <styleUrl>#54</styleUrl>
            <Polygon id="50">
                <outerBoundaryIs>
                    <LinearRing id="52">
                        <coordinates>9.620603015075377,57.17409545350086,0.0 9.620603015075377,57.190754139326124,0.0 9.658291457286431,57.190754139326124,0.0 9.658291457286431,57.17409545350086,0.0 9.620603015075377,57.17409545350086,0.0</coordinates>
                    </LinearRing>
                </outerBoundaryIs>
            </Polygon>
        </Placemark>
        <Placemark id="57">
            <styleUrl>#60</styleUrl>
            <Polygon id="56">
                <outerBoundaryIs>
                    <LinearRing id="58">
                        <coordinates>9.58291457286432,57.190754139326124,0.0 9.58291457286432,57.20740531556819,0.0 9.620603015075377,57.20740531556819,0.0 9.620603015075377,57.190754139326124,0.0 9.58291457286432,57.190754139326124,0.0</coordinates>
                    </LinearRing>
                </outerBoundaryIs>
            </Polygon>
        </Placemark>
        <Placemark id="63">
            <styleUrl>#66</styleUrl>
            <Polygon id="62">
                <outerBoundaryIs>
                    <LinearRing id="64">
                        <coordinates>9.620603015075377,57.190754139326124,0.0 9.620603015075377,57.20740531556819,0.0 9.658291457286431,57.20740531556819,0.0 9.658291457286431,57.190754139326124,0.0 9.620603015075377,57.190754139326124,0.0</coordinates>
                    </LinearRing>
                </outerBoundaryIs>
            </Polygon>
        </Placemark>
    </Document>
</kml>
